ATLAS CENTAUR R/B       
1 06155U 72065B   25307.73216927  .00001573  00000+0  21962-3 0  9999
2 06155  35.0025 323.6705 0033451  29.7390 330.5204 14.77249899822623
SL-8 R/B                
1 08459U 75112B   25308.29272463  .00000321  00000+0  11432-3 0  9994
2 08459  74.0600 249.5708 0015400   7.2427 352.8946 14.38106662613848
SL-3 R/B                
1 10114U 77057B   25308.41224002  .00011905  00000+0  28373-3 0  9997
2 10114  97.5673 110.2874 0008235  23.8878 336.2749 15.41709398649003
SEASAT 1                
1 10967U 78064A   25308.42657808  .00000452  00000+0  16515-3 0  9997
2 10967 108.0055 222.6702 0002512 259.7938 100.2924 14.45994185488400
SL-14 R/B               
1 11267U 79011B   25308.21837771  .00000761  00000+0  72897-4 0  9999
2 11267  82.5262 215.5695 0017561 113.9723 246.3338 14.91696126510070
SL-8 R/B                
1 11574U 79089B   25308.47821278  .00000356  00000+0  11585-3 0  9994
2 11574  74.0684 322.7963 0015383 171.7317 188.4095 14.42243505418051
SL-14 R/B               
1 11672U 80005B   25308.41744546  .00000889  00000+0  87898-4 0  9991
2 11672  82.5148  66.0350 0014885 217.0335 142.9858 14.90710647457826
SL-8 R/B                
1 12139U 81003B   25308.40048882  .00023177  00000+0  64831-3 0  9994
2 12139  82.9341  45.4319 0283657 252.8519 104.1474 15.04926686295794
SL-3 R/B                
1 12465U 81046B   25308.39967589  .00013615  00000+0  35585-3 0  9995
2 12465  81.2320  79.7552 0020850  95.3587 265.0034 15.38411913419148
METEOR PRIRODA          
1 12585U 81065A   25308.42138469  .00393264  70068-4  68323-3 0  9993
2 12585  97.4660  12.0473 0002494 280.9721  79.1277 16.02252586424651
SL-3 R/B                
1 12904U 81103B   25308.34418934  .00004790  00000+0  22358-3 0  9995
2 12904  81.1628   0.2996 0016155   5.9430 354.1989 15.19527701954183
SL-3 R/B                
1 13068U 82013B   25308.48286183  .00005280  00000+0  23851-3 0  9996
2 13068  81.1724 307.3801 0021573 239.3950 120.5154 15.20579331385318
