CCSDS_OMM_VERS = 2.0
CREATION_DATE  = 
ORIGINATOR     = 

OBJECT_NAME    = ATLAS CENTAUR R/B
OBJECT_ID      = 1972-065B
CENTER_NAME    = EARTH
REF_FRAME      = TEME
TIME_SYSTEM    = UTC
MEAN_ELEMENT_THEORY = SGP/SGP4

EPOCH          = 2025-11-03T17:34:19.424928
MEAN_MOTION    = 14.77249899
ECCENTRICITY   = .00334512
INCLINATION    = 35.0025
RA_OF_ASC_NODE = 323.6705
ARG_OF_PERICENTER = 29.7390
MEAN_ANOMALY   = 330.5204

EPHEMERIS_TYPE = 0
CLASSIFICATION_TYPE = U
NORAD_CAT_ID   = 6155
ELEMENT_SET_NO = 999
REV_AT_EPOCH   = 82262
BSTAR          = .21962204E-3
MEAN_MOTION_DOT = .1573E-4
MEAN_MOTION_DDOT = 0

CCSDS_OMM_VERS = 2.0
CREATION_DATE  = 
ORIGINATOR     = 

OBJECT_NAME    = SL-8 R/B
OBJECT_ID      = 1975-112B
CENTER_NAME    = EARTH
REF_FRAME      = TEME
TIME_SYSTEM    = UTC
MEAN_ELEMENT_THEORY = SGP/SGP4

EPOCH          = 2025-11-04T07:01:31.408032
MEAN_MOTION    = 14.38106662
ECCENTRICITY   = .00154
INCLINATION    = 74.0600
RA_OF_ASC_NODE = 249.5708
ARG_OF_PERICENTER = 7.2427
MEAN_ANOMALY   = 352.8946

EPHEMERIS_TYPE = 0
CLASSIFICATION_TYPE = U
NORAD_CAT_ID   = 8459
ELEMENT_SET_NO = 999
REV_AT_EPOCH   = 61384
BSTAR          = .11432E-3
MEAN_MOTION_DOT = .321E-5
MEAN_MOTION_DDOT = 0

CCSDS_OMM_VERS = 2.0
CREATION_DATE  = 
ORIGINATOR     = 

OBJECT_NAME    = SL-3 R/B
OBJECT_ID      = 1977-057B
CENTER_NAME    = EARTH
REF_FRAME      = TEME
TIME_SYSTEM    = UTC
MEAN_ELEMENT_THEORY = SGP/SGP4

EPOCH          = 2025-11-04T09:53:37.537728
MEAN_MOTION    = 15.41709398
ECCENTRICITY   = .0008235
INCLINATION    = 97.5673
RA_OF_ASC_NODE = 110.2874
ARG_OF_PERICENTER = 23.8878
MEAN_ANOMALY   = 336.2749

EPHEMERIS_TYPE = 0
CLASSIFICATION_TYPE = U
NORAD_CAT_ID   = 10114
ELEMENT_SET_NO = 999
REV_AT_EPOCH   = 64900
BSTAR          = .28373E-3
MEAN_MOTION_DOT = .11905E-3
MEAN_MOTION_DDOT = 0

CCSDS_OMM_VERS = 2.0
CREATION_DATE  = 
ORIGINATOR     = 

OBJECT_NAME    = SEASAT 1
OBJECT_ID      = 1978-064A
CENTER_NAME    = EARTH
REF_FRAME      = TEME
TIME_SYSTEM    = UTC
MEAN_ELEMENT_THEORY = SGP/SGP4

EPOCH          = 2025-11-04T10:14:16.346112
MEAN_MOTION    = 14.45994185
ECCENTRICITY   = .0002512
INCLINATION    = 108.0055
RA_OF_ASC_NODE = 222.6702
ARG_OF_PERICENTER = 259.7938
MEAN_ANOMALY   = 100.2924

EPHEMERIS_TYPE = 0
CLASSIFICATION_TYPE = U
NORAD_CAT_ID   = 10967
ELEMENT_SET_NO = 999
REV_AT_EPOCH   = 48840
BSTAR          = .16515E-3
MEAN_MOTION_DOT = .452E-5
MEAN_MOTION_DDOT = 0

CCSDS_OMM_VERS = 2.0
CREATION_DATE  = 
ORIGINATOR     = 

OBJECT_NAME    = SL-14 R/B
OBJECT_ID      = 1979-011B
CENTER_NAME    = EARTH
REF_FRAME      = TEME
TIME_SYSTEM    = UTC
MEAN_ELEMENT_THEORY = SGP/SGP4

EPOCH          = 2025-11-04T05:14:27.834144
MEAN_MOTION    = 14.91696126
ECCENTRICITY   = .0017561
INCLINATION    = 82.5262
RA_OF_ASC_NODE = 215.5695
ARG_OF_PERICENTER = 113.9723
MEAN_ANOMALY   = 246.3338

EPHEMERIS_TYPE = 0
CLASSIFICATION_TYPE = U
NORAD_CAT_ID   = 11267
ELEMENT_SET_NO = 999
REV_AT_EPOCH   = 51007
BSTAR          = .72897E-4
MEAN_MOTION_DOT = .761E-5
MEAN_MOTION_DDOT = 0

CCSDS_OMM_VERS = 2.0
CREATION_DATE  = 
ORIGINATOR     = 

OBJECT_NAME    = SL-8 R/B
OBJECT_ID      = 1979-089B
CENTER_NAME    = EARTH
REF_FRAME      = TEME
TIME_SYSTEM    = UTC
MEAN_ELEMENT_THEORY = SGP/SGP4

EPOCH          = 2025-11-04T11:28:37.584192
MEAN_MOTION    = 14.42243505
ECCENTRICITY   = .0015383
INCLINATION    = 74.0684
RA_OF_ASC_NODE = 322.7963
ARG_OF_PERICENTER = 171.7317
MEAN_ANOMALY   = 188.4095

EPHEMERIS_TYPE = 0
CLASSIFICATION_TYPE = U
NORAD_CAT_ID   = 11574
ELEMENT_SET_NO = 999
REV_AT_EPOCH   = 41805
BSTAR          = .11585E-3
MEAN_MOTION_DOT = .356E-5
MEAN_MOTION_DDOT = 0

CCSDS_OMM_VERS = 2.0
CREATION_DATE  = 
ORIGINATOR     = 

OBJECT_NAME    = SL-14 R/B
OBJECT_ID      = 1980-005B
CENTER_NAME    = EARTH
REF_FRAME      = TEME
TIME_SYSTEM    = UTC
MEAN_ELEMENT_THEORY = SGP/SGP4

EPOCH          = 2025-11-04T10:01:07.287744
MEAN_MOTION    = 14.90710647
ECCENTRICITY   = .0014885
INCLINATION    = 82.5148
RA_OF_ASC_NODE = 66.0350
ARG_OF_PERICENTER = 217.0335
MEAN_ANOMALY   = 142.9858

EPHEMERIS_TYPE = 0
CLASSIFICATION_TYPE = U
NORAD_CAT_ID   = 11672
ELEMENT_SET_NO = 999
REV_AT_EPOCH   = 45782
BSTAR          = .87898E-4
MEAN_MOTION_DOT = .889E-5
MEAN_MOTION_DDOT = 0

CCSDS_OMM_VERS = 2.0
CREATION_DATE  = 
ORIGINATOR     = 

OBJECT_NAME    = SL-8 R/B
OBJECT_ID      = 1981-003B
CENTER_NAME    = EARTH
REF_FRAME      = TEME
TIME_SYSTEM    = UTC
MEAN_ELEMENT_THEORY = SGP/SGP4

EPOCH          = 2025-11-04T09:36:42.234048
MEAN_MOTION    = 15.04926686
ECCENTRICITY   = .0283657
INCLINATION    = 82.9341
RA_OF_ASC_NODE = 45.4319
ARG_OF_PERICENTER = 252.8519
MEAN_ANOMALY   = 104.1474

EPHEMERIS_TYPE = 0
CLASSIFICATION_TYPE = U
NORAD_CAT_ID   = 12139
ELEMENT_SET_NO = 999
REV_AT_EPOCH   = 29579
BSTAR          = .64831E-3
MEAN_MOTION_DOT = .23177E-3
MEAN_MOTION_DDOT = 0

CCSDS_OMM_VERS = 2.0
CREATION_DATE  = 
ORIGINATOR     = 

OBJECT_NAME    = SL-3 R/B
OBJECT_ID      = 1981-046B
CENTER_NAME    = EARTH
REF_FRAME      = TEME
TIME_SYSTEM    = UTC
MEAN_ELEMENT_THEORY = SGP/SGP4

EPOCH          = 2025-11-04T09:35:31.996896
MEAN_MOTION    = 15.38411913
ECCENTRICITY   = .002085
INCLINATION    = 81.2320
RA_OF_ASC_NODE = 79.7552
ARG_OF_PERICENTER = 95.3587
MEAN_ANOMALY   = 265.0034

EPHEMERIS_TYPE = 0
CLASSIFICATION_TYPE = U
NORAD_CAT_ID   = 12465
ELEMENT_SET_NO = 999
REV_AT_EPOCH   = 41914
BSTAR          = .35585E-3
MEAN_MOTION_DOT = .13615E-3
MEAN_MOTION_DDOT = 0

CCSDS_OMM_VERS = 2.0
CREATION_DATE  = 
ORIGINATOR     = 

OBJECT_NAME    = METEOR PRIRODA
OBJECT_ID      = 1981-065A
CENTER_NAME    = EARTH
REF_FRAME      = TEME
TIME_SYSTEM    = UTC
MEAN_ELEMENT_THEORY = SGP/SGP4

EPOCH          = 2025-11-04T10:06:47.637216
MEAN_MOTION    = 16.02252586
ECCENTRICITY   = .0002494
INCLINATION    = 97.4660
RA_OF_ASC_NODE = 12.0473
ARG_OF_PERICENTER = 280.9721
MEAN_ANOMALY   = 79.1277

EPHEMERIS_TYPE = 0
CLASSIFICATION_TYPE = U
NORAD_CAT_ID   = 12585
ELEMENT_SET_NO = 999
REV_AT_EPOCH   = 42465
BSTAR          = .68323E-3
MEAN_MOTION_DOT = .393264E-2
MEAN_MOTION_DDOT = .70068E-4

CCSDS_OMM_VERS = 2.0
CREATION_DATE  = 
ORIGINATOR     = 

OBJECT_NAME    = SL-3 R/B
OBJECT_ID      = 1981-103B
CENTER_NAME    = EARTH
REF_FRAME      = TEME
TIME_SYSTEM    = UTC
MEAN_ELEMENT_THEORY = SGP/SGP4

EPOCH          = 2025-11-04T08:15:37.958976
MEAN_MOTION    = 15.19527701
ECCENTRICITY   = .0016155
INCLINATION    = 81.1628
RA_OF_ASC_NODE = 0.2996
ARG_OF_PERICENTER = 5.9430
MEAN_ANOMALY   = 354.1989

EPHEMERIS_TYPE = 0
CLASSIFICATION_TYPE = U
NORAD_CAT_ID   = 12904
ELEMENT_SET_NO = 999
REV_AT_EPOCH   = 95418
BSTAR          = .22358E-3
MEAN_MOTION_DOT = .479E-4
MEAN_MOTION_DDOT = 0

CCSDS_OMM_VERS = 2.0
CREATION_DATE  = 
ORIGINATOR     = 

OBJECT_NAME    = SL-3 R/B
OBJECT_ID      = 1982-013B
CENTER_NAME    = EARTH
REF_FRAME      = TEME
TIME_SYSTEM    = UTC
MEAN_ELEMENT_THEORY = SGP/SGP4

EPOCH          = 2025-11-04T11:35:19.262112
MEAN_MOTION    = 15.20579331
ECCENTRICITY   = .0021573
INCLINATION    = 81.1724
RA_OF_ASC_NODE = 307.3801
ARG_OF_PERICENTER = 239.3950
MEAN_ANOMALY   = 120.5154

EPHEMERIS_TYPE = 0
CLASSIFICATION_TYPE = U
NORAD_CAT_ID   = 13068
ELEMENT_SET_NO = 999
REV_AT_EPOCH   = 38531
BSTAR          = .23851E-3
MEAN_MOTION_DOT = .528E-4
MEAN_MOTION_DDOT = 0

